GLOBALSTAR M075 [+]     
1 37192U 10054E   24057.55962494 -.00000103  00000+0  41230-5 0  9993
2 37192  51.9933 192.7648 0000722  99.1749 340.8282 12.62270959615812
GLOBALSTAR M073 [+]     
1 37193U 10054F   24057.32154707 -.00000071  00000+0  18390-3 0  9992
2 37193  52.0054 106.9426 0000522 106.5338 332.9762 12.62262102617611
GLOBALSTAR M083 [+]     
1 37739U 11033A   24057.17636414 -.00000105  00000+0 -82099-5 0  9997
2 37739  51.9863  56.7670 0000194 140.6439 298.3996 12.62266011586614
GLOBALSTAR M088 [+]     
1 37740U 11033B   24057.07717549 -.00000071  00000+0  18476-3 0  9994
2 37740  51.9754 322.9647 0000444  54.6614  53.9817 12.62265169582148
GLOBALSTAR M091 [+]     
1 37741U 11033C   24057.10275475 -.00000073  00000+0  17225-3 0  9999
2 37741  51.9991 285.5891 0000525  63.0859 101.7215 12.62271803582935
GLOBALSTAR M085 [+]     
1 37742U 11033D   24057.53623498 -.00000114  00000+0 -57421-4 0  9999
2 37742  51.9841 235.7286 0000645  89.3631 305.6095 12.62268153583506
GLOBALSTAR M081 [+]     
1 37743U 11033E   24057.65078368 -.00000105  00000+0 -48943-5 0  9993
2 37743  51.9931 237.8722 0000704  71.2208   5.0190 12.62270210583662
GLOBALSTAR M089 [+]     
1 37744U 11033F   24057.53251906 -.00000114  00000+0 -56938-4 0  9994
2 37744  51.9916 192.5495 0001045  88.0220 349.8210 12.62254614584493
